{
  "type": "FeatureCollection",
  "features": [
    {
      "type": "Feature",
      "properties": {
        "norad_id": 44334,
        "name": "EUTELSAT 7C",
        "group": "eutelsat",
        "lat": 0.012936714215661456,
        "lon": 12.867541428937322,
        "alt_km": 35797.19581477076,
        "timestamp": "2025-12-02T19:35:50.233207+00:00",
        "meta_object_name": "EUTELSAT 7C",
        "meta_object_id": "2019-034B",
        "meta_epoch": "2025-12-02T05:15:21.542112",
        "meta_mean_motion": 1.0027126,
        "meta_eccentricity": 0.000345,
        "meta_inclination": 0.0769,
        "meta_ra_of_asc_node": 181.9237,
        "meta_arg_of_pericenter": 51.9021,
        "meta_mean_anomaly": 283.3354,
        "meta_ephemeris_type": 0,
        "meta_classification_type": "U",
        "meta_norad_cat_id": 44334,
        "meta_element_set_no": 999,
        "meta_rev_at_epoch": 486,
        "meta_bstar": 0,
        "meta_mean_motion_dot": 6.9e-07,
        "meta_mean_motion_ddot": 0,
        "tle_line1": "1 44334U 19034B   25336.21899933  .00000069  00000+0  00000+0 0  9991",
        "tle_line2": "2 44334   0.0769 181.9237 0003450  51.9021 283.3354  1.00271260  4868"
      },
      "geometry": {
        "type": "Point",
        "coordinates": [
          12.867541428937322,
          0.012936714215661456
        ]
      }
    },
    {
      "type": "Feature",
      "properties": {
        "norad_id": 44624,
        "name": "EUTELSAT 5 WEST B",
        "group": "eutelsat",
        "lat": 0.05884210181543602,
        "lon": 0.8992706573378497,
        "alt_km": 35790.763269839175,
        "timestamp": "2025-12-02T19:35:50.233219+00:00",
        "meta_object_name": "EUTELSAT 5 WEST B",
        "meta_object_id": "2019-067A",
        "meta_epoch": "2025-12-02T06:54:42.025824",
        "meta_mean_motion": 1.00272691,
        "meta_eccentricity": 0.0003638,
        "meta_inclination": 0.0729,
        "meta_ra_of_asc_node": 326.0859,
        "meta_arg_of_pericenter": 286.0913,
        "meta_mean_anomaly": 277.9031,
        "meta_ephemeris_type": 0,
        "meta_classification_type": "U",
        "meta_norad_cat_id": 44624,
        "meta_element_set_no": 999,
        "meta_rev_at_epoch": 2246,
        "meta_bstar": 0,
        "meta_mean_motion_dot": -2.1e-07,
        "meta_mean_motion_ddot": 0,
        "tle_line1": "1 44624U 19067A   25336.28798641 -.00000021  00000+0  00000+0 0  9999",
        "tle_line2": "2 44624   0.0729 326.0859 0003638 286.0913 277.9031  1.00272691 22463"
      },
      "geometry": {
        "type": "Point",
        "coordinates": [
          0.8992706573378497,
          0.05884210181543602
        ]
      }
    },
    {
      "type": "Feature",
      "properties": {
        "norad_id": 45027,
        "name": "EUTELSAT KONNECT",
        "group": "eutelsat",
        "lat": -0.04045032352918981,
        "lon": 13.057688184733033,
        "alt_km": 35787.98869251045,
        "timestamp": "2025-12-02T19:35:50.233237+00:00",
        "meta_object_name": "EUTELSAT KONNECT",
        "meta_object_id": "2020-005B",
        "meta_epoch": "2025-12-02T08:40:54.355008",
        "meta_mean_motion": 1.00270943,
        "meta_eccentricity": 0.0001605,
        "meta_inclination": 0.0668,
        "meta_ra_of_asc_node": 100.4804,
        "meta_arg_of_pericenter": 168.2818,
        "meta_mean_anomaly": 300.1251,
        "meta_ephemeris_type": 0,
        "meta_classification_type": "U",
        "meta_norad_cat_id": 45027,
        "meta_element_set_no": 999,
        "meta_rev_at_epoch": 2235,
        "meta_bstar": 0,
        "meta_mean_motion_dot": 7e-07,
        "meta_mean_motion_ddot": 0,
        "tle_line1": "1 45027U 20005B   25336.36174022  .00000070  00000+0  00000+0 0  9994",
        "tle_line2": "2 45027   0.0668 100.4804 0001605 168.2818 300.1251  1.00270943 22353"
      },
      "geometry": {
        "type": "Point",
        "coordinates": [
          13.057688184733033,
          -0.04045032352918981
        ]
      }
    },
    {
      "type": "Feature",
      "properties": {
        "norad_id": 49056,
        "name": "EUTELSAT QUANTUM",
        "group": "eutelsat",
        "lat": 0.029580548808786963,
        "lon": 53.57833591315369,
        "alt_km": 35799.465498597885,
        "timestamp": "2025-12-02T19:35:50.233249+00:00",
        "meta_object_name": "EUTELSAT QUANTUM",
        "meta_object_id": "2021-069B",
        "meta_epoch": "2025-12-02T06:48:38.528064",
        "meta_mean_motion": 1.00271277,
        "meta_eccentricity": 0.0003691,
        "meta_inclination": 0.0154,
        "meta_ra_of_asc_node": 4.2,
        "meta_arg_of_pericenter": 261.1409,
        "meta_mean_anomaly": 315.9194,
        "meta_ephemeris_type": 0,
        "meta_classification_type": "U",
        "meta_norad_cat_id": 49056,
        "meta_element_set_no": 999,
        "meta_rev_at_epoch": 1595,
        "meta_bstar": 0,
        "meta_mean_motion_dot": 1.47e-06,
        "meta_mean_motion_ddot": 0,
        "tle_line1": "1 49056U 21069B   25336.28377926  .00000147  00000+0  00000+0 0  9995",
        "tle_line2": "2 49056   0.0154   4.2000 0003691 261.1409 315.9194  1.00271277 15953"
      },
      "geometry": {
        "type": "Point",
        "coordinates": [
          53.57833591315369,
          0.029580548808786963
        ]
      }
    },
    {
      "type": "Feature",
      "properties": {
        "norad_id": 53765,
        "name": "EUTELSAT KONNECT VHTS",
        "group": "eutelsat",
        "lat": -0.03156895969497887,
        "lon": 8.560595351682556,
        "alt_km": 35795.7322237922,
        "timestamp": "2025-12-02T19:35:50.233261+00:00",
        "meta_object_name": "EUTELSAT KONNECT VHTS",
        "meta_object_id": "2022-110A",
        "meta_epoch": "2025-12-02T08:39:39.472992",
        "meta_mean_motion": 1.00268502,
        "meta_eccentricity": 0.0002715,
        "meta_inclination": 0.0576,
        "meta_ra_of_asc_node": 108.477,
        "meta_arg_of_pericenter": 120.3305,
        "meta_mean_anomaly": 335.2715,
        "meta_ephemeris_type": 0,
        "meta_classification_type": "U",
        "meta_norad_cat_id": 53765,
        "meta_element_set_no": 999,
        "meta_rev_at_epoch": 485,
        "meta_bstar": 0,
        "meta_mean_motion_dot": 3.7e-07,
        "meta_mean_motion_ddot": 0,
        "tle_line1": "1 53765U 22110A   25336.36087353  .00000037  00000+0  00000+0 0  9994",
        "tle_line2": "2 53765   0.0576 108.4770 0002715 120.3305 335.2715  1.00268502  4859"
      },
      "geometry": {
        "type": "Point",
        "coordinates": [
          8.560595351682556,
          -0.03156895969497887
        ]
      }
    },
    {
      "type": "Feature",
      "properties": {
        "norad_id": 54048,
        "name": "EUTELSAT HOTBIRD 13F",
        "group": "eutelsat",
        "lat": 0.07669260474184943,
        "lon": 18.86129628822737,
        "alt_km": 35778.69013798536,
        "timestamp": "2025-12-02T19:35:50.233272+00:00",
        "meta_object_name": "EUTELSAT HOTBIRD 13F",
        "meta_object_id": "2022-134A",
        "meta_epoch": "2025-12-02T08:42:24.211008",
        "meta_mean_motion": 1.00271528,
        "meta_eccentricity": 0.0001919,
        "meta_inclination": 0.0553,
        "meta_ra_of_asc_node": 288.4275,
        "meta_arg_of_pericenter": 67.0912,
        "meta_mean_anomaly": 219.5562,
        "meta_ephemeris_type": 0,
        "meta_classification_type": "U",
        "meta_norad_cat_id": 54048,
        "meta_element_set_no": 999,
        "meta_rev_at_epoch": 1140,
        "meta_bstar": 0,
        "meta_mean_motion_dot": 1.08e-06,
        "meta_mean_motion_ddot": 0,
        "tle_line1": "1 54048U 22134A   25336.36278022  .00000108  00000+0  00000+0 0  9999",
        "tle_line2": "2 54048   0.0553 288.4275 0001919  67.0912 219.5562  1.00271528 11409"
      },
      "geometry": {
        "type": "Point",
        "coordinates": [
          18.86129628822737,
          0.07669260474184943
        ]
      }
    },
    {
      "type": "Feature",
      "properties": {
        "norad_id": 54225,
        "name": "EUTELSAT HOTBIRD 13G",
        "group": "eutelsat",
        "lat": 0.04836399017419849,
        "lon": 18.840083171723276,
        "alt_km": 35795.037522000006,
        "timestamp": "2025-12-02T19:35:50.233284+00:00",
        "meta_object_name": "EUTELSAT HOTBIRD 13G",
        "meta_object_id": "2022-146A",
        "meta_epoch": "2025-12-02T08:42:31.699296",
        "meta_mean_motion": 1.00270969,
        "meta_eccentricity": 0.0002157,
        "meta_inclination": 0.0484,
        "meta_ra_of_asc_node": 239.7787,
        "meta_arg_of_pericenter": 304.14,
        "meta_mean_anomaly": 31.1819,
        "meta_ephemeris_type": 0,
        "meta_classification_type": "U",
        "meta_norad_cat_id": 54225,
        "meta_element_set_no": 999,
        "meta_rev_at_epoch": 549,
        "meta_bstar": 0,
        "meta_mean_motion_dot": 1.08e-06,
        "meta_mean_motion_ddot": 0,
        "tle_line1": "1 54225U 22146A   25336.36286689  .00000108  00000+0  00000+0 0  9997",
        "tle_line2": "2 54225   0.0484 239.7787 0002157 304.1400  31.1819  1.00270969  5491"
      },
      "geometry": {
        "type": "Point",
        "coordinates": [
          18.840083171723276,
          0.04836399017419849
        ]
      }
    }
  ]
}